[{"OBJECT_NAME":"FLOCK 4G-25","OBJECT_ID":"2025-009AP","EPOCH":"2026-03-09T17:53:50.680608","MEAN_MOTION":15.27424196,"ECCENTRICITY":8.276e-5,"INCLINATION":97.4049,"RA_OF_ASC_NODE":151.4141,"ARG_OF_PERICENTER":316.3151,"MEAN_ANOMALY":43.8023,"EPHEMERIS_TYPE":0,"CLASSIFICATION_TYPE":"U","NORAD_CAT_ID":62646,"ELEMENT_SET_NO":999,"REV_AT_EPOCH":6373,"BSTAR":0.00038902475,"MEAN_MOTION_DOT":0.00010373,"MEAN_MOTION_DDOT":0},{"OBJECT_NAME":"STARLINK-36471","OBJECT_ID":"2026-002V","EPOCH":"2026-03-09T02:51:22.155552","MEAN_MOTION":15.2758585,"ECCENTRICITY":0.00013932,"INCLINATION":43.0021,"RA_OF_ASC_NODE":328.3142,"ARG_OF_PERICENTER":277.6642,"MEAN_ANOMALY":82.4051,"EPHEMERIS_TYPE":0,"CLASSIFICATION_TYPE":"U","NORAD_CAT_ID":67324,"ELEMENT_SET_NO":999,"REV_AT_EPOCH":1099,"BSTAR":0.0010515395,"MEAN_MOTION_DOT":0.00028792,"MEAN_MOTION_DDOT":0}]
